EUTELSAT 7A             
1 28187U 04008A   25204.74181427  .00000089  00000+0  00000+0 0  9990
2 28187   4.9927  75.9520 0001284  26.4530 327.1707  1.00275599 78057
EUTELSAT 174A           
1 28924U 05052A   25204.77782887 -.00000004  00000+0  00000+0 0  9997
2 28924   3.3840  80.6413 0005913  45.3752 269.7108  1.00272835 49038
EUTELSAT HOTBIRD 13E    
1 28946U 06007B   25204.90235825 -.00000158  00000+0  00000+0 0  9992
2 28946   1.2213  89.5420 0006431 182.8869 314.0972  0.98117997 71021
EUTELSAT HOTBIRD 13B    
1 29270U 06032A   25204.91691830  .00000144  00000+0  00000+0 0  9998
2 29270   0.8106  85.9268 0003793  37.4726 181.6589  1.00268818 44017
EUTELSAT HOTBIRD 13C    
1 33459U 08065A   25204.90669647 -.00000113  00000+0  00000+0 0  9997
2 33459   2.1032  83.1382 0003139  49.7550 122.8684  1.00271715 44053
EUTELSAT 36B            
1 36101U 09065A   25204.87544711  .00000102  00000+0  00000+0 0  9992
2 36101   0.0508 358.4449 0005521 126.2138 182.8044  1.00271564 57419
EUTELSAT KA-SAT 9A      
1 37258U 10069A   25204.91215162  .00000050  00000+0  00000+0 0  9994
2 37258   0.0620 303.1727 0003516 190.1725 145.8828  1.00269229 40717
EUTELSAT 7 WEST A       
1 37816U 11051A   25204.90669647 -.00000071  00000+0  00000+0 0  9990
2 37816   0.0606 355.4840 0004652 145.5271 119.9437  1.00271452 50607
